[{"model": "geo.region", "pk": 1, "fields": {"name_uz": "TOSHKENT SHAHRI", "name_ru": "TOSHKENT SHAHRI", "ordering": 1}}, {"model": "geo.region", "pk": 2, "fields": {"name_uz": "TOSHKENT VILOYATI", "name_ru": "TOSHKENT VILOYATI", "ordering": 2}}, {"model": "geo.region", "pk": 3, "fields": {"name_uz": "ANDIJON viloyati", "name_ru": "ANDIJON viloyati", "ordering": 3}}, {"model": "geo.region", "pk": 4, "fields": {"name_uz": "FARG‘ONA VILOYATI", "name_ru": "FARG‘ONA VILOYATI", "ordering": 4}}, {"model": "geo.region", "pk": 5, "fields": {"name_uz": "NAMANGAN VILOYATI", "name_ru": "NAMANGAN VILOYATI", "ordering": 5}}, {"model": "geo.region", "pk": 6, "fields": {"name_uz": "SIRDARYO VILOYATI", "name_ru": "SIRDARYO VILOYATI", "ordering": 6}}, {"model": "geo.region", "pk": 7, "fields": {"name_uz": "JIZZAX VILOYATI", "name_ru": "JIZZAX VILOYATI", "ordering": 7}}, {"model": "geo.region", "pk": 8, "fields": {"name_uz": "SAMARQAND VILOYATI", "name_ru": "SAMARQAND VILOYATI", "ordering": 8}}, {"model": "geo.region", "pk": 9, "fields": {"name_uz": "QASHQADARYO VILOYATI", "name_ru": "QASHQADARYO VILOYATI", "ordering": 9}}, {"model": "geo.region", "pk": 10, "fields": {"name_uz": "SURXONDARYO VILOYATI", "name_ru": "SURXONDARYO VILOYATI", "ordering": 10}}, {"model": "geo.region", "pk": 11, "fields": {"name_uz": "NAVOIY VILOYATI", "name_ru": "NAVOIY VILOYATI", "ordering": 11}}, {"model": "geo.region", "pk": 12, "fields": {"name_uz": "BUXORO VILOYATI", "name_ru": "BUXORO VILOYATI", "ordering": 12}}, {"model": "geo.region", "pk": 13, "fields": {"name_uz": "XORAZM VILOYATI", "name_ru": "XORAZM VILOYATI", "ordering": 13}}, {"model": "geo.region", "pk": 14, "fields": {"name_uz": "QORAQALPOG‘ISTON RESPUBLIKASI", "name_ru": "QORAQALPOG‘ISTON RESPUBLIKASI", "ordering": 14}}, {"model": "geo.district", "pk": 1, "fields": {"name_uz": "Bektemir tumani", "name_ru": "Bektemir tumani", "region": 1, "ordering": 1}}, {"model": "geo.district", "pk": 2, "fields": {"name_uz": "Mirobod tumani", "name_ru": "Mirobod tumani", "region": 1, "ordering": 2}}, {"model": "geo.district", "pk": 3, "fields": {"name_uz": "Mirzo Ulug‘bek tumani", "name_ru": "Mirzo Ulug‘bek tumani", "region": 1, "ordering": 3}}, {"model": "geo.district", "pk": 4, "fields": {"name_uz": "Olmazor tumani", "name_ru": "Olmazor tumani", "region": 1, "ordering": 4}}, {"model": "geo.district", "pk": 5, "fields": {"name_uz": "Sergeli tumani", "name_ru": "Sergeli tumani", "region": 1, "ordering": 4}}, {"model": "geo.district", "pk": 6, "fields": {"name_uz": "Uchtepa tumani", "name_ru": "Uchtepa tumani", "region": 1, "ordering": 6}}, {"model": "geo.district", "pk": 7, "fields": {"name_uz": "Yakkasaroy tumani", "name_ru": "Yakkasaroy tumani", "region": 1, "ordering": 7}}, {"model": "geo.district", "pk": 8, "fields": {"name_uz": "Yangi hayot tumani", "name_ru": "Yangi hayot tumani", "region": 1, "ordering": 8}}, {"model": "geo.district", "pk": 9, "fields": {"name_uz": "Yashnobod tumani", "name_ru": "Yashnobod tumani", "region": 1, "ordering": 9}}, {"model": "geo.district", "pk": 10, "fields": {"name_uz": "Yunusobod tumani", "name_ru": "Yunusobod tumani", "region": 1, "ordering": 10}}, {"model": "geo.district", "pk": 11, "fields": {"name_uz": "Chilonzor tumani", "name_ru": "Chilonzor tumani", "region": 1, "ordering": 11}}, {"model": "geo.district", "pk": 12, "fields": {"name_uz": "Shayxontohur tumani", "name_ru": "Shayxontohur tumani", "region": 1, "ordering": 12}}, {"model": "geo.district", "pk": 13, "fields": {"name_uz": "Nurafshon shahri", "name_ru": "Nurafshon shahri", "region": 2, "ordering": 1}}, {"model": "geo.district", "pk": 14, "fields": {"name_uz": "Angren shahri", "name_ru": "Angren shahri", "region": 2, "ordering": 2}}, {"model": "geo.district", "pk": 15, "fields": {"name_uz": "Bekobod shahri", "name_ru": "Bekobod shahri", "region": 2, "ordering": 3}}, {"model": "geo.district", "pk": 16, "fields": {"name_uz": "Ohangaron shahri", "name_ru": "Ohangaron shahri", "region": 2, "ordering": 4}}, {"model": "geo.district", "pk": 17, "fields": {"name_uz": "Olmaliq shahri", "name_ru": "Olmaliq shahri", "region": 2, "ordering": 5}}, {"model": "geo.district", "pk": 18, "fields": {"name_uz": "Chirchiq shahri", "name_ru": "Chirchiq shahri", "region": 2, "ordering": 6}}, {"model": "geo.district", "pk": 19, "fields": {"name_uz": "Yangiyo‘l shahri", "name_ru": "Yangiyo‘l shahri", "region": 2, "ordering": 7}}, {"model": "geo.district", "pk": 20, "fields": {"name_uz": "Bekobod tumani", "name_ru": "Bekobod tumani", "region": 2, "ordering": 8}}, {"model": "geo.district", "pk": 21, "fields": {"name_uz": "Bo‘stonliq tumani", "name_ru": "Bo‘stonliq tumani", "region": 2, "ordering": 9}}, {"model": "geo.district", "pk": 22, "fields": {"name_uz": "Bo‘ka tumani", "name_ru": "Bo‘ka tumani", "region": 2, "ordering": 10}}, {"model": "geo.district", "pk": 23, "fields": {"name_uz": "Zangiota tumani", "name_ru": "Zangiota tumani", "region": 2, "ordering": 11}}, {"model": "geo.district", "pk": 24, "fields": {"name_uz": "Ohangaron tumani", "name_ru": "Ohangaron tumani", "region": 2, "ordering": 12}}, {"model": "geo.district", "pk": 25, "fields": {"name_uz": "Oqqo‘rg‘on tumani", "name_ru": "Oqqo‘rg‘on tumani", "region": 2, "ordering": 13}}, {"model": "geo.district", "pk": 26, "fields": {"name_uz": "Parkent tumani", "name_ru": "Parkent tumani", "region": 2, "ordering": 14}}, {"model": "geo.district", "pk": 27, "fields": {"name_uz": "Pskent tumani", "name_ru": "Pskent tumani", "region": 2, "ordering": 15}}, {"model": "geo.district", "pk": 28, "fields": {"name_uz": "Qibray tumani", "name_ru": "Qibray tumani", "region": 2, "ordering": 16}}, {"model": "geo.district", "pk": 29, "fields": {"name_uz": "Quyi Chirchiq tumani", "name_ru": "Quyi Chirchiq tumani", "region": 2, "ordering": 17}}, {"model": "geo.district", "pk": 30, "fields": {"name_uz": "Toshkent tumani", "name_ru": "Toshkent tumani", "region": 2, "ordering": 18}}, {"model": "geo.district", "pk": 31, "fields": {"name_uz": "Yuqori Chirchiq tumani", "name_ru": "Yuqori Chirchiq tumani", "region": 2, "ordering": 19}}, {"model": "geo.district", "pk": 32, "fields": {"name_uz": "Yangiyo‘l tumani", "name_ru": "Yangiyo‘l tumani", "region": 2, "ordering": 20}}, {"model": "geo.district", "pk": 33, "fields": {"name_uz": "O‘rta Chirchiq tumani", "name_ru": "O‘rta Chirchiq tumani", "region": 2, "ordering": 21}}, {"model": "geo.district", "pk": 34, "fields": {"name_uz": "Chinoz tumani", "name_ru": "Chinoz tumani", "region": 2, "ordering": 22}}, {"model": "geo.district", "pk": 35, "fields": {"name_uz": "Andijon shahri", "name_ru": "Andijon shahri", "region": 3, "ordering": 1}}, {"model": "geo.district", "pk": 36, "fields": {"name_uz": "Xonobod shahri", "name_ru": "Xonobod shahri", "region": 3, "ordering": 2}}, {"model": "geo.district", "pk": 37, "fields": {"name_uz": "Andijon tumani", "name_ru": "Andijon tumani", "region": 3, "ordering": 3}}, {"model": "geo.district", "pk": 38, "fields": {"name_uz": "Asaka tumani", "name_ru": "Asaka tumani", "region": 3, "ordering": 4}}, {"model": "geo.district", "pk": 39, "fields": {"name_uz": "Baliqchi tumani", "name_ru": "Baliqchi tumani", "region": 3, "ordering": 5}}, {"model": "geo.district", "pk": 40, "fields": {"name_uz": "Buloqboshi tumani", "name_ru": "Buloqboshi tumani", "region": 3, "ordering": 6}}, {"model": "geo.district", "pk": 41, "fields": {"name_uz": "Bo‘ston tumani", "name_ru": "Bo‘ston tumani", "region": 3, "ordering": 7}}, {"model": "geo.district", "pk": 42, "fields": {"name_uz": "Jalaquduq tumani", "name_ru": "Jalaquduq tumani", "region": 3, "ordering": 8}}, {"model": "geo.district", "pk": 43, "fields": {"name_uz": "Izboskan tumani", "name_ru": "Izboskan tumani", "region": 3, "ordering": 9}}, {"model": "geo.district", "pk": 44, "fields": {"name_uz": "Marhamat tumani", "name_ru": "Marhamat tumani", "region": 3, "ordering": 10}}, {"model": "geo.district", "pk": 45, "fields": {"name_uz": "Oltinko‘l tumani", "name_ru": "Oltinko‘l tumani", "region": 3, "ordering": 11}}, {"model": "geo.district", "pk": 46, "fields": {"name_uz": "Paxtaobod tumani", "name_ru": "Paxtaobod tumani", "region": 3, "ordering": 12}}, {"model": "geo.district", "pk": 47, "fields": {"name_uz": "Qo‘rg‘ontepa tumani", "name_ru": "Qo‘rg‘ontepa tumani", "region": 3, "ordering": 13}}, {"model": "geo.district", "pk": 48, "fields": {"name_uz": "Ulug‘nor tumani", "name_ru": "Ulug‘nor tumani", "region": 3, "ordering": 14}}, {"model": "geo.district", "pk": 49, "fields": {"name_uz": "Xo‘jaobod tumani", "name_ru": "Xo‘jaobod tumani", "region": 3, "ordering": 15}}, {"model": "geo.district", "pk": 50, "fields": {"name_uz": "Shahrixon tumani", "name_ru": "Shahrixon tumani", "region": 3, "ordering": 16}}, {"model": "geo.district", "pk": 51, "fields": {"name_uz": "Farg‘ona shahri", "name_ru": "Farg‘ona shahri", "region": 4, "ordering": 1}}, {"model": "geo.district", "pk": 52, "fields": {"name_uz": "Marg‘ilon shahri", "name_ru": "Marg‘ilon shahri", "region": 4, "ordering": 2}}, {"model": "geo.district", "pk": 53, "fields": {"name_uz": "Quvasoy shahri", "name_ru": "Quvasoy shahri", "region": 4, "ordering": 3}}, {"model": "geo.district", "pk": 54, "fields": {"name_uz": "Qo‘qon shahri", "name_ru": "Qo‘qon shahri", "region": 4, "ordering": 4}}, {"model": "geo.district", "pk": 55, "fields": {"name_uz": "Oltiariq tumani", "name_ru": "Oltiariq tumani", "region": 4, "ordering": 5}}, {"model": "geo.district", "pk": 56, "fields": {"name_uz": "Bog‘dod tumani", "name_ru": "Bog‘dod tumani", "region": 4, "ordering": 6}}, {"model": "geo.district", "pk": 57, "fields": {"name_uz": "Beshariq tumani", "name_ru": "Beshariq tumani", "region": 4, "ordering": 7}}, {"model": "geo.district", "pk": 58, "fields": {"name_uz": "Buvayda tumani", "name_ru": "Buvayda tumani", "region": 4, "ordering": 8}}, {"model": "geo.district", "pk": 59, "fields": {"name_uz": "Dang‘ara tumani", "name_ru": "Dang‘ara tumani", "region": 4, "ordering": 9}}, {"model": "geo.district", "pk": 60, "fields": {"name_uz": "Farg‘ona tumani", "name_ru": "Farg‘ona tumani", "region": 4, "ordering": 10}}, {"model": "geo.district", "pk": 61, "fields": {"name_uz": "Furqat tumani", "name_ru": "Furqat tumani", "region": 4, "ordering": 11}}, {"model": "geo.district", "pk": 62, "fields": {"name_uz": "Qo‘shtepa tumani", "name_ru": "Qo‘shtepa tumani", "region": 4, "ordering": 12}}, {"model": "geo.district", "pk": 63, "fields": {"name_uz": "Quva tumani", "name_ru": "Quva tumani", "region": 4, "ordering": 13}}, {"model": "geo.district", "pk": 64, "fields": {"name_uz": "Rishton tumani", "name_ru": "Rishton tumani", "region": 4, "ordering": 14}}, {"model": "geo.district", "pk": 65, "fields": {"name_uz": "So‘x tumani", "name_ru": "So‘x tumani", "region": 4, "ordering": 15}}, {"model": "geo.district", "pk": 66, "fields": {"name_uz": "Toshloq tumani", "name_ru": "Toshloq tumani", "region": 4, "ordering": 16}}, {"model": "geo.district", "pk": 67, "fields": {"name_uz": "Uchko‘prik tumani", "name_ru": "Uchko‘prik tumani", "region": 4, "ordering": 17}}, {"model": "geo.district", "pk": 68, "fields": {"name_uz": "Yozyovon tumani", "name_ru": "Yozyovon tumani", "region": 4, "ordering": 18}}, {"model": "geo.district", "pk": 69, "fields": {"name_uz": "O‘zbekiston tumani", "name_ru": "O‘zbekiston tumani", "region": 4, "ordering": 19}}, {"model": "geo.district", "pk": 70, "fields": {"name_uz": "Namangan shahri", "name_ru": "Namangan shahri", "region": 5, "ordering": 1}}, {"model": "geo.district", "pk": 71, "fields": {"name_uz": "Mingbuloq tumani", "name_ru": "Mingbuloq tumani", "region": 5, "ordering": 2}}, {"model": "geo.district", "pk": 72, "fields": {"name_uz": "Kosonsoy tumani", "name_ru": "Kosonsoy tumani", "region": 5, "ordering": 3}}, {"model": "geo.district", "pk": 73, "fields": {"name_uz": "Namangan tumani", "name_ru": "Namangan tumani", "region": 5, "ordering": 4}}, {"model": "geo.district", "pk": 74, "fields": {"name_uz": "Norin tumani", "name_ru": "Norin tumani", "region": 5, "ordering": 5}}, {"model": "geo.district", "pk": 75, "fields": {"name_uz": "Pop tumani", "name_ru": "Pop tumani", "region": 5, "ordering": 6}}, {"model": "geo.district", "pk": 76, "fields": {"name_uz": "To‘raqo‘rg‘on tumani", "name_ru": "To‘raqo‘rg‘on tumani", "region": 5, "ordering": 7}}, {"model": "geo.district", "pk": 77, "fields": {"name_uz": "Uychi tumani", "name_ru": "Uychi tumani", "region": 5, "ordering": 8}}, {"model": "geo.district", "pk": 78, "fields": {"name_uz": "Uchqo‘rg‘on tumani", "name_ru": "Uchqo‘rg‘on tumani", "region": 5, "ordering": 9}}, {"model": "geo.district", "pk": 79, "fields": {"name_uz": "Chortoq tumani", "name_ru": "Chortoq tumani", "region": 5, "ordering": 10}}, {"model": "geo.district", "pk": 80, "fields": {"name_uz": "Chust tumani", "name_ru": "Chust tumani", "region": 5, "ordering": 11}}, {"model": "geo.district", "pk": 81, "fields": {"name_uz": "Yangiqorg‘on tumani", "name_ru": "Yangiqorg‘on tumani", "region": 5, "ordering": 12}}, {"model": "geo.district", "pk": 82, "fields": {"name_uz": "Guliston shahri", "name_ru": "Guliston shahri", "region": 6, "ordering": 1}}, {"model": "geo.district", "pk": 83, "fields": {"name_uz": "Shirin shahri", "name_ru": "Shirin shahri", "region": 6, "ordering": 2}}, {"model": "geo.district", "pk": 84, "fields": {"name_uz": "Yangiyer shahri", "name_ru": "Yangiyer shahri", "region": 6, "ordering": 3}}, {"model": "geo.district", "pk": 85, "fields": {"name_uz": "Boyovut tumani", "name_ru": "Boyovut tumani", "region": 6, "ordering": 4}}, {"model": "geo.district", "pk": 86, "fields": {"name_uz": "Guliston tumani", "name_ru": "Guliston tumani", "region": 6, "ordering": 5}}, {"model": "geo.district", "pk": 87, "fields": {"name_uz": "Mirzaobod tumani", "name_ru": "Mirzaobod tumani", "region": 6, "ordering": 6}}, {"model": "geo.district", "pk": 88, "fields": {"name_uz": "Oqoltin tumani", "name_ru": "Oqoltin tumani", "region": 6, "ordering": 7}}, {"model": "geo.district", "pk": 89, "fields": {"name_uz": "Sardoba tumani", "name_ru": "Sardoba tumani", "region": 6, "ordering": 8}}, {"model": "geo.district", "pk": 90, "fields": {"name_uz": "Sayxunobod tumani", "name_ru": "Sayxunobod tumani", "region": 6, "ordering": 8}}, {"model": "geo.district", "pk": 91, "fields": {"name_uz": "Sirdaryo tumani", "name_ru": "Sirdaryo tumani", "region": 6, "ordering": 9}}, {"model": "geo.district", "pk": 92, "fields": {"name_uz": "Xovos tumani", "name_ru": "Xovos tumani", "region": 6, "ordering": 10}}, {"model": "geo.district", "pk": 93, "fields": {"name_uz": "Jizzax shahri", "name_ru": "Jizzax shahri", "region": 7, "ordering": 1}}, {"model": "geo.district", "pk": 94, "fields": {"name_uz": "Arnasoy tumani", "name_ru": "Arnasoy tumani", "region": 7, "ordering": 2}}, {"model": "geo.district", "pk": 95, "fields": {"name_uz": "Baxmal tumani", "name_ru": "Baxmal tumani", "region": 7, "ordering": 3}}, {"model": "geo.district", "pk": 96, "fields": {"name_uz": "Do‘stlik tumani", "name_ru": "Do‘stlik tumani", "region": 7, "ordering": 4}}, {"model": "geo.district", "pk": 97, "fields": {"name_uz": "Forish tumani", "name_ru": "Forish tumani", "region": 7, "ordering": 5}}, {"model": "geo.district", "pk": 98, "fields": {"name_uz": "Mirzacho‘l tumani", "name_ru": "Mirzacho‘l tumani", "region": 7, "ordering": 6}}, {"model": "geo.district", "pk": 99, "fields": {"name_uz": "Paxtakor tumani", "name_ru": "Paxtakor tumani", "region": 7, "ordering": 7}}, {"model": "geo.district", "pk": 100, "fields": {"name_uz": "Yangiobod tumani", "name_ru": "Yangiobod tumani", "region": 7, "ordering": 8}}, {"model": "geo.district", "pk": 101, "fields": {"name_uz": "Zomin tumani", "name_ru": "Zomin tumani", "region": 7, "ordering": 9}}, {"model": "geo.district", "pk": 102, "fields": {"name_uz": "Zafarobod tumani", "name_ru": "Zafarobod tumani", "region": 7, "ordering": 10}}, {"model": "geo.district", "pk": 103, "fields": {"name_uz": "Zarbdor tumani", "name_ru": "Zarbdor tumani", "region": 7, "ordering": 11}}, {"model": "geo.district", "pk": 104, "fields": {"name_uz": "Sharof Rashidov tumani", "name_ru": "Sharof Rashidov tumani", "region": 7, "ordering": 12}}, {"model": "geo.district", "pk": 105, "fields": {"name_uz": "G‘allaorol tumani", "name_ru": "G‘allaorol tumani", "region": 7, "ordering": 13}}, {"model": "geo.district", "pk": 106, "fields": {"name_uz": "Samarqand shahri", "name_ru": "Samarqand shahri", "region": 8, "ordering": 1}}, {"model": "geo.district", "pk": 107, "fields": {"name_uz": "Kattaqo‘rg‘on shahri", "name_ru": "Kattaqo‘rg‘on shahri", "region": 6, "ordering": 2}}, {"model": "geo.district", "pk": 108, "fields": {"name_uz": "Bulung‘ur tumani", "name_ru": "Bulung‘ur tumani", "region": 8, "ordering": 3}}, {"model": "geo.district", "pk": 109, "fields": {"name_uz": "Ishtixon tumani", "name_ru": "Ishtixon tumani", "region": 8, "ordering": 4}}, {"model": "geo.district", "pk": 110, "fields": {"name_uz": "Jomboy tumani", "name_ru": "Jomboy tumani", "region": 8, "ordering": 5}}, {"model": "geo.district", "pk": 111, "fields": {"name_uz": "Kattaqo‘rg‘on tumani", "name_ru": "Kattaqo‘rg‘on tumani", "region": 8, "ordering": 6}}, {"model": "geo.district", "pk": 112, "fields": {"name_uz": "Qo‘shrabot tumani", "name_ru": "Qo‘shrabot tumani", "region": 8, "ordering": 7}}, {"model": "geo.district", "pk": 113, "fields": {"name_uz": "Narpay tumani", "name_ru": "Narpay tumani", "region": 8, "ordering": 8}}, {"model": "geo.district", "pk": 114, "fields": {"name_uz": "Nurobod tumani", "name_ru": "Nurobod tumani", "region": 8, "ordering": 9}}, {"model": "geo.district", "pk": 115, "fields": {"name_uz": "Oqdaryo tumani", "name_ru": "Oqdaryo tumani", "region": 8, "ordering": 10}}, {"model": "geo.district", "pk": 116, "fields": {"name_uz": "Paxtachi tumani", "name_ru": "Paxtachi tumani", "region": 8, "ordering": 11}}, {"model": "geo.district", "pk": 117, "fields": {"name_uz": "Payariq tumani", "name_ru": "Payariq tumani", "region": 8, "ordering": 12}}, {"model": "geo.district", "pk": 118, "fields": {"name_uz": "Past Darg‘om tumani", "name_ru": "Past Darg‘om tumani", "region": 8, "ordering": 13}}, {"model": "geo.district", "pk": 119, "fields": {"name_uz": "Samarqand tumani", "name_ru": "Samarqand tumani", "region": 8, "ordering": 14}}, {"model": "geo.district", "pk": 120, "fields": {"name_uz": "Toyloq tumani", "name_ru": "Toyloq tumani", "region": 8, "ordering": 15}}, {"model": "geo.district", "pk": 121, "fields": {"name_uz": "Urgut tumani", "name_ru": "Urgut tumani", "region": 8, "ordering": 16}}, {"model": "geo.district", "pk": 122, "fields": {"name_uz": "Qarshi shahri", "name_ru": "Qarshi shahri", "region": 9, "ordering": 1}}, {"model": "geo.district", "pk": 123, "fields": {"name_uz": "Shahrisabz shahri", "name_ru": "Shahrisabz shahri", "region": 9, "ordering": 1}}, {"model": "geo.district", "pk": 124, "fields": {"name_uz": "Chiroqchi tumani", "name_ru": "Chiroqchi tumani", "region": 9, "ordering": 3}}, {"model": "geo.district", "pk": 125, "fields": {"name_uz": "Dehqonobod tumani", "name_ru": "Dehqonobod tumani", "region": 9, "ordering": 4}}, {"model": "geo.district", "pk": 126, "fields": {"name_uz": "G‘uzor tumani", "name_ru": "G‘uzor tumani", "region": 9, "ordering": 5}}, {"model": "geo.district", "pk": 127, "fields": {"name_uz": "Qamashi tumani", "name_ru": "Qamashi tumani", "region": 9, "ordering": 6}}, {"model": "geo.district", "pk": 128, "fields": {"name_uz": "Qarshi tumani", "name_ru": "Qarshi tumani", "region": 9, "ordering": 7}}, {"model": "geo.district", "pk": 129, "fields": {"name_uz": "Koson tumani", "name_ru": "Koson tumani", "region": 9, "ordering": 8}}, {"model": "geo.district", "pk": 130, "fields": {"name_uz": "Kasbi tumani", "name_ru": "Kasbi tumani", "region": 9, "ordering": 9}}, {"model": "geo.district", "pk": 131, "fields": {"name_uz": "Kitob tumani", "name_ru": "Kitob tumani", "region": 9, "ordering": 10}}, {"model": "geo.district", "pk": 132, "fields": {"name_uz": "Mirishkor tumani", "name_ru": "Mirishkor tumani", "region": 9, "ordering": 11}}, {"model": "geo.district", "pk": 133, "fields": {"name_uz": "Muborak tumani", "name_ru": "Muborak tumani", "region": 9, "ordering": 12}}, {"model": "geo.district", "pk": 134, "fields": {"name_uz": "Nishon tumani", "name_ru": "Nishon tumani", "region": 9, "ordering": 13}}, {"model": "geo.district", "pk": 135, "fields": {"name_uz": "Shahrisabz tumani", "name_ru": "Shahrisabz tumani", "region": 9, "ordering": 14}}, {"model": "geo.district", "pk": 136, "fields": {"name_uz": "Yakkabog‘ tumani", "name_ru": "Yakkabog‘ tumani", "region": 9, "ordering": 15}}, {"model": "geo.district", "pk": 137, "fields": {"name_uz": "Termiz shahri", "name_ru": "Termiz shahri", "region": 10, "ordering": 1}}, {"model": "geo.district", "pk": 138, "fields": {"name_uz": "Denov shahri", "name_ru": "Denov shahri", "region": 10, "ordering": 2}}, {"model": "geo.district", "pk": 139, "fields": {"name_uz": "Sharg‘un shahri", "name_ru": "Sharg‘un shahri", "region": 10, "ordering": 3}}, {"model": "geo.district", "pk": 140, "fields": {"name_uz": "Angor tumani", "name_ru": "Angor tumani", "region": 10, "ordering": 4}}, {"model": "geo.district", "pk": 141, "fields": {"name_uz": "Bandixon tumani", "name_ru": "Bandixon tumani", "region": 10, "ordering": 5}}, {"model": "geo.district", "pk": 142, "fields": {"name_uz": "Boysun tumani", "name_ru": "Boysun tumani", "region": 10, "ordering": 6}}, {"model": "geo.district", "pk": 143, "fields": {"name_uz": "Denov tumani", "name_ru": "Denov tumani", "region": 10, "ordering": 7}}, {"model": "geo.district", "pk": 144, "fields": {"name_uz": "Jarqo‘rg‘on tumani", "name_ru": "Jarqo‘rg‘on tumani", "region": 10, "ordering": 8}}, {"model": "geo.district", "pk": 145, "fields": {"name_uz": "Muzrabot tumani", "name_ru": "Muzrabot tumani", "region": 10, "ordering": 9}}, {"model": "geo.district", "pk": 146, "fields": {"name_uz": "Oltinsoy tumani", "name_ru": "Oltinsoy tumani", "region": 10, "ordering": 10}}, {"model": "geo.district", "pk": 147, "fields": {"name_uz": "Qiziriq tumani", "name_ru": "Qiziriq tumani", "region": 10, "ordering": 11}}, {"model": "geo.district", "pk": 148, "fields": {"name_uz": "Qumqo‘rg‘on tumani", "name_ru": "Qumqo‘rg‘on tumani", "region": 10, "ordering": 12}}, {"model": "geo.district", "pk": 149, "fields": {"name_uz": "Sariosiyo tumani", "name_ru": "Sariosiyo tumani", "region": 10, "ordering": 13}}, {"model": "geo.district", "pk": 150, "fields": {"name_uz": "Termiz tumani", "name_ru": "Termiz tumani", "region": 10, "ordering": 14}}, {"model": "geo.district", "pk": 151, "fields": {"name_uz": "Uzun tumani", "name_ru": "Uzun tumani", "region": 10, "ordering": 15}}, {"model": "geo.district", "pk": 152, "fields": {"name_uz": "Sherobod tumani", "name_ru": "Sherobod tumani", "region": 10, "ordering": 16}}, {"model": "geo.district", "pk": 153, "fields": {"name_uz": "Sho‘rchi tumani", "name_ru": "Sho‘rchi tumani", "region": 10, "ordering": 17}}, {"model": "geo.district", "pk": 154, "fields": {"name_uz": "Navoiy shahri", "name_ru": "Navoiy shahri", "region": 11, "ordering": 1}}, {"model": "geo.district", "pk": 155, "fields": {"name_uz": "Zarafshon shahri", "name_ru": "Zarafshon shahri", "region": 11, "ordering": 2}}, {"model": "geo.district", "pk": 156, "fields": {"name_uz": "Konimex tumani", "name_ru": "Konimex tumani", "region": 11, "ordering": 3}}, {"model": "geo.district", "pk": 157, "fields": {"name_uz": "Karmana tumani", "name_ru": "Karmana tumani", "region": 11, "ordering": 4}}, {"model": "geo.district", "pk": 158, "fields": {"name_uz": "Qiziltepa tumani", "name_ru": "Qiziltepa tumani", "region": 11, "ordering": 5}}, {"model": "geo.district", "pk": 159, "fields": {"name_uz": "Navbahor tumani", "name_ru": "Navbahor tumani", "region": 11, "ordering": 6}}, {"model": "geo.district", "pk": 160, "fields": {"name_uz": "Nurota tumani", "name_ru": "Nurota tumani", "region": 11, "ordering": 7}}, {"model": "geo.district", "pk": 161, "fields": {"name_uz": "Tomdi tumani", "name_ru": "Tomdi tumani", "region": 11, "ordering": 8}}, {"model": "geo.district", "pk": 162, "fields": {"name_uz": "Uchquduq tumani", "name_ru": "Uchquduq tumani", "region": 11, "ordering": 9}}, {"model": "geo.district", "pk": 163, "fields": {"name_uz": "Xatirchi tumani", "name_ru": "Xatirchi tumani", "region": 11, "ordering": 10}}, {"model": "geo.district", "pk": 164, "fields": {"name_uz": "Buxoro shahri", "name_ru": "Buxoro shahri", "region": 12, "ordering": 1}}, {"model": "geo.district", "pk": 165, "fields": {"name_uz": "Buxoro tumani", "name_ru": "Buxoro tumani", "region": 12, "ordering": 2}}, {"model": "geo.district", "pk": 166, "fields": {"name_uz": "Jondor tumani", "name_ru": "Jondor tumani", "region": 12, "ordering": 3}}, {"model": "geo.district", "pk": 167, "fields": {"name_uz": "Kogon tumani", "name_ru": "Kogon tumani", "region": 12, "ordering": 4}}, {"model": "geo.district", "pk": 168, "fields": {"name_uz": "Olot tumani", "name_ru": "Olot tumani", "region": 12, "ordering": 5}}, {"model": "geo.district", "pk": 169, "fields": {"name_uz": "Peshko‘ tumani", "name_ru": "Peshko‘ tumani", "region": 12, "ordering": 6}}, {"model": "geo.district", "pk": 170, "fields": {"name_uz": "Qorako‘l tumani", "name_ru": "Qorako‘l tumani", "region": 12, "ordering": 7}}, {"model": "geo.district", "pk": 171, "fields": {"name_uz": "Qorovulbozor tumani", "name_ru": "Qorovulbozor tumani", "region": 12, "ordering": 8}}, {"model": "geo.district", "pk": 172, "fields": {"name_uz": "Romitan tumani", "name_ru": "Romitan tumani", "region": 12, "ordering": 9}}, {"model": "geo.district", "pk": 173, "fields": {"name_uz": "Vobkent tumani", "name_ru": "Vobkent tumani", "region": 12, "ordering": 10}}, {"model": "geo.district", "pk": 174, "fields": {"name_uz": "Shofirkon tumani", "name_ru": "Shofirkon tumani", "region": 12, "ordering": 11}}, {"model": "geo.district", "pk": 175, "fields": {"name_uz": "G‘ijduvon tumani", "name_ru": "G‘ijduvon tumani", "region": 12, "ordering": 12}}, {"model": "geo.district", "pk": 176, "fields": {"name_uz": "Urganch shahri", "name_ru": "Urganch shahri", "region": 13, "ordering": 1}}, {"model": "geo.district", "pk": 177, "fields": {"name_uz": "Xiva shahri", "name_ru": "Xiva shahri", "region": 13, "ordering": 2}}, {"model": "geo.district", "pk": 178, "fields": {"name_uz": "Bog‘ot tumani", "name_ru": "Bog‘ot tumani", "region": 13, "ordering": 3}}, {"model": "geo.district", "pk": 179, "fields": {"name_uz": "Gurlan tumani", "name_ru": "Gurlan tumani", "region": 13, "ordering": 4}}, {"model": "geo.district", "pk": 180, "fields": {"name_uz": "Urganch tumani", "name_ru": "Urganch tumani", "region": 13, "ordering": 5}}, {"model": "geo.district", "pk": 181, "fields": {"name_uz": "Hazorasp tumani", "name_ru": "Hazorasp tumani", "region": 13, "ordering": 6}}, {"model": "geo.district", "pk": 182, "fields": {"name_uz": "Qo‘shko‘pir tumani", "name_ru": "Qo‘shko‘pir tumani", "region": 13, "ordering": 7}}, {"model": "geo.district", "pk": 183, "fields": {"name_uz": "Tuproqqal’a tumani", "name_ru": "Tuproqqal’a tumani", "region": 13, "ordering": 8}}, {"model": "geo.district", "pk": 184, "fields": {"name_uz": "Xonqa tumani", "name_ru": "Xonqa tumani", "region": 13, "ordering": 9}}, {"model": "geo.district", "pk": 185, "fields": {"name_uz": "Xiva tumani", "name_ru": "Xiva tumani", "region": 13, "ordering": 10}}, {"model": "geo.district", "pk": 186, "fields": {"name_uz": "Yangiariq tumani", "name_ru": "Yangiariq tumani", "region": 13, "ordering": 11}}, {"model": "geo.district", "pk": 187, "fields": {"name_uz": "Yangibozor tumani", "name_ru": "Yangibozor tumani", "region": 13, "ordering": 12}}, {"model": "geo.district", "pk": 188, "fields": {"name_uz": "Shovot tumani", "name_ru": "Shovot tumani", "region": 13, "ordering": 13}}, {"model": "geo.district", "pk": 189, "fields": {"name_uz": "Nókis qalası", "name_ru": "Nókis qalası", "region": 14, "ordering": 1}}, {"model": "geo.district", "pk": 190, "fields": {"name_uz": "Ámiwdárya rayonı", "name_ru": "Ámiwdárya rayonı", "region": 14, "ordering": 2}}, {"model": "geo.district", "pk": 191, "fields": {"name_uz": "Beruniy rayonı", "name_ru": "Beruniy rayonı", "region": 14, "ordering": 3}}, {"model": "geo.district", "pk": 192, "fields": {"name_uz": "Bozataw rayonı", "name_ru": "Bozataw rayonı", "region": 14, "ordering": 4}}, {"model": "geo.district", "pk": 193, "fields": {"name_uz": "Ellikqala rayonı", "name_ru": "Ellikqala rayonı", "region": 14, "ordering": 5}}, {"model": "geo.district", "pk": 194, "fields": {"name_uz": "Moynaq rayonı", "name_ru": "Moynaq rayonı", "region": 14, "ordering": 6}}, {"model": "geo.district", "pk": 195, "fields": {"name_uz": "Nókis rayonı", "name_ru": "Nókis rayonı", "region": 14, "ordering": 7}}, {"model": "geo.district", "pk": 196, "fields": {"name_uz": "Qanlıkól rayonı", "name_ru": "Qanlıkól rayonı", "region": 14, "ordering": 8}}, {"model": "geo.district", "pk": 197, "fields": {"name_uz": "Qaraózek rayonı", "name_ru": "Qaraózek rayonı", "region": 14, "ordering": 9}}, {"model": "geo.district", "pk": 198, "fields": {"name_uz": "Qońırat rayonı", "name_ru": "Qońırat rayonı", "region": 14, "ordering": 10}}, {"model": "geo.district", "pk": 199, "fields": {"name_uz": "Taqıyatas rayonı", "name_ru": "Taqıyatas rayonı", "region": 14, "ordering": 11}}, {"model": "geo.district", "pk": 200, "fields": {"name_uz": "Taxtakópir rayonı", "name_ru": "Taxtakópir rayonı", "region": 14, "ordering": 12}}, {"model": "geo.district", "pk": 201, "fields": {"name_uz": "Tórtkúl rayonı", "name_ru": "Tórtkúl rayonı", "region": 14, "ordering": 13}}, {"model": "geo.district", "pk": 202, "fields": {"name_uz": "Xojeli rayonı", "name_ru": "Xojeli rayonı", "region": 14, "ordering": 14}}, {"model": "geo.district", "pk": 203, "fields": {"name_uz": "Shımbay rayonı", "name_ru": "Shımbay rayonı", "region": 14, "ordering": 15}}, {"model": "geo.district", "pk": 204, "fields": {"name_uz": "Shomanay rayonı", "name_ru": "Shomanay rayonı", "region": 14, "ordering": 16}}]